{
  "last_updated": "2026-05-04T06:00:02.943865",
  "satellites": {
    "98592": {
      "name": "DUTHSat-2",
      "norad_id": "98592",
      "tle": "1 64530U 25135C   26123.55061774  .00014906  00000-0  58410-3 0  9994\n2 64530  97.4571 239.5312 0004220   2.2144 357.9112 15.25868963 48125",
      "epoch": "2026-05-03T13:12:53.372736",
      "fetched_at": "2026-05-04T06:00:03.062407",
      "source": "satnogs"
    },
    "98530": {
      "name": "LAMARR",
      "norad_id": "98530",
      "tle": "1 66673U 25276H   26026.90917087  .00034524  00000-0  16680-2 0  9998\n2 66673  97.4301 102.8338 0007597 141.5941 218.5835 15.18529012  8972",
      "epoch": "2026-01-26T21:49:12.363168",
      "fetched_at": "2026-01-28T06:00:02.884758",
      "source": "satnogs",
      "note": "Using previous TLE (fetch/manual failed today)"
    },
    "98529": {
      "name": "DIRAC",
      "norad_id": "98529",
      "tle": "1 66681U 25276R   26026.63281774  .00024563  00000-0  11745-2 0  9993\n2 66681  97.4280 102.5712 0006320 148.4115 211.7500 15.18972786  8932",
      "epoch": "2026-01-26T15:11:15.452736",
      "fetched_at": "2026-01-28T06:00:02.937152",
      "source": "satnogs",
      "note": "Using previous TLE (fetch/manual failed today)"
    },
    "98518": {
      "name": "MICE-1",
      "norad_id": "98518",
      "tle": "1 66684U 25276U   26123.71433690  .00003907  00000-0  19060-3 0  9997\n2 66684  97.4281 198.0913 0006672 137.8187 222.3562 15.18869729 23665",
      "epoch": "2026-05-03T17:08:38.708160",
      "fetched_at": "2026-05-04T06:00:03.279004",
      "source": "satnogs"
    },
    "68416": {
      "name": "PeakSat",
      "norad_id": "68416",
      "tle": "1 68416U 26067A   26123.82924743  .00008433  00000-0  40702-3 0  9993\n2 68416  97.4525  82.9921 0004133  79.7761 280.3939 15.18913305  5216",
      "epoch": "2026-05-03T19:54:06.977952",
      "fetched_at": "2026-05-04T06:00:03.334164",
      "source": "satnogs"
    },
    "98370": {
      "name": "OptiSat",
      "norad_id": "98370",
      "tle": "1 69696U 69696    26089.46895426  .00000000  00000-0  00000-0 0 00004\n2 69696 097.4414 038.3720 0003145 156.7651 191.1423 15.18459822000011",
      "epoch": "2026-03-30T11:15:17.648064",
      "fetched_at": "2026-04-17T12:47:18.541523",
      "source": "manual"
    },
    "68468": {
      "name": "ERMIS-1",
      "norad_id": "68468",
      "tle": "1 68468U 26067BE  26123.87383532  .00008837  00000-0  45028-3 0  9994\n2 68468  97.4539  82.9399 0005996 192.3578 167.7509 15.16994184  5216",
      "epoch": "2026-05-03T20:58:19.371648",
      "fetched_at": "2026-05-04T06:00:03.413160",
      "source": "satnogs"
    },
    "68420": {
      "name": "ERMIS-2",
      "norad_id": "68420",
      "tle": "1 68420U 26067E   26123.76453461  .00012099  00000-0  58155-3 0  9999\n2 68420  97.4464  82.9010 0003341  73.2971 286.8630 15.18957875  5202",
      "epoch": "2026-05-03T18:20:55.790304",
      "fetched_at": "2026-05-04T06:00:03.486524",
      "source": "satnogs"
    },
    "98367": {
      "name": "ERMIS-3",
      "norad_id": "98367",
      "tle": "1 68425U 26067K   26123.84033411  .00005898  00000-0  29036-3 0  9997\n2 68425  97.4567  82.9962 0003350 107.5127 252.6473 15.18353896  5211",
      "epoch": "2026-05-03T20:10:04.867104",
      "fetched_at": "2026-05-04T06:00:03.539734",
      "source": "satnogs"
    }
  },
  "fetch_log": []
}